{
  "type": "FeatureCollection",
  "features": [
    {
      "type": "Feature",
      "properties": {
        "norad_id": 46805,
        "name": "COSMOS 2547 (705K)",
        "group": "glo-ops",
        "lat": 6.678696930797294,
        "lon": 15.207428363764027,
        "alt_km": 19120.776143585983,
        "timestamp": "2025-12-21T18:54:58.757830+00:00",
        "meta_object_name": "COSMOS 2547 (705K)",
        "meta_object_id": "2020-075A",
        "meta_epoch": "2025-12-21T02:15:10.361952",
        "meta_mean_motion": 2.13100243,
        "meta_eccentricity": 0.0006113,
        "meta_inclination": 64.5966,
        "meta_ra_of_asc_node": 198.4175,
        "meta_arg_of_pericenter": 227.727,
        "meta_mean_anomaly": 132.2941,
        "meta_ephemeris_type": 0,
        "meta_classification_type": "U",
        "meta_norad_cat_id": 46805,
        "meta_element_set_no": 999,
        "meta_rev_at_epoch": 4011,
        "meta_bstar": 0,
        "meta_mean_motion_dot": 9.8e-07,
        "meta_mean_motion_ddot": 0,
        "tle_line1": "1 46805U 20075A   25355.09386993  .00000098  00000+0  00000+0 0  9999",
        "tle_line2": "2 46805  64.5966 198.4175 0006113 227.7270 132.2941  2.13100243 40118"
      },
      "geometry": {
        "type": "Point",
        "coordinates": [
          15.207428363764027,
          6.678696930797294
        ]
      }
    },
    {
      "type": "Feature",
      "properties": {
        "norad_id": 52984,
        "name": "COSMOS 2557 (706K)",
        "group": "glo-ops",
        "lat": 40.349038697507474,
        "lon": -15.269281860450622,
        "alt_km": 19146.27028828003,
        "timestamp": "2025-12-21T18:54:58.757841+00:00",
        "meta_object_name": "COSMOS 2557 (706K)",
        "meta_object_id": "2022-075A",
        "meta_epoch": "2025-12-21T06:13:04.908576",
        "meta_mean_motion": 2.13102077,
        "meta_eccentricity": 0.00135381,
        "meta_inclination": 64.405,
        "meta_ra_of_asc_node": 320.7521,
        "meta_arg_of_pericenter": 278.2868,
        "meta_mean_anomaly": 81.5534,
        "meta_ephemeris_type": 0,
        "meta_classification_type": "U",
        "meta_norad_cat_id": 52984,
        "meta_element_set_no": 999,
        "meta_rev_at_epoch": 2692,
        "meta_bstar": 0,
        "meta_mean_motion_dot": -4.9e-07,
        "meta_mean_motion_ddot": 0,
        "tle_line1": "1 52984U 22075A   25355.25908459 -.00000049  00000+0  00000+0 0  9998",
        "tle_line2": "2 52984  64.4050 320.7521 0013538 278.2868  81.5534  2.13102077 26928"
      },
      "geometry": {
        "type": "Point",
        "coordinates": [
          -15.269281860450622,
          40.349038697507474
        ]
      }
    },
    {
      "type": "Feature",
      "properties": {
        "norad_id": 54031,
        "name": "COSMOS 2559 (707K)",
        "group": "glo-ops",
        "lat": -4.1651240337646955,
        "lon": 142.8069340601133,
        "alt_km": 19101.811478551102,
        "timestamp": "2025-12-21T18:54:58.757852+00:00",
        "meta_object_name": "COSMOS 2559 (707K)",
        "meta_object_id": "2022-130A",
        "meta_epoch": "2025-12-21T01:52:43.812768",
        "meta_mean_motion": 2.13101354,
        "meta_eccentricity": 0.00115601,
        "meta_inclination": 64.3775,
        "meta_ra_of_asc_node": 320.8478,
        "meta_arg_of_pericenter": 191.8523,
        "meta_mean_anomaly": 168.1144,
        "meta_ephemeris_type": 0,
        "meta_classification_type": "U",
        "meta_norad_cat_id": 54031,
        "meta_element_set_no": 999,
        "meta_rev_at_epoch": 2489,
        "meta_bstar": 0,
        "meta_mean_motion_dot": -5e-07,
        "meta_mean_motion_ddot": 0,
        "tle_line1": "1 54031U 22130A   25355.07828487 -.00000050  00000+0  00000+0 0  9999",
        "tle_line2": "2 54031  64.3775 320.8478 0011560 191.8523 168.1144  2.13101354 24899"
      },
      "geometry": {
        "type": "Point",
        "coordinates": [
          142.8069340601133,
          -4.1651240337646955
        ]
      }
    },
    {
      "type": "Feature",
      "properties": {
        "norad_id": 54377,
        "name": "COSMOS 2564 (761)",
        "group": "glo-ops",
        "lat": -48.380763264290664,
        "lon": 166.47782109315654,
        "alt_km": 19139.469520699848,
        "timestamp": "2025-12-21T18:54:58.757863+00:00",
        "meta_object_name": "COSMOS 2564 (761)",
        "meta_object_id": "2022-161A",
        "meta_epoch": "2025-12-20T22:08:20.201856",
        "meta_mean_motion": 2.13102061,
        "meta_eccentricity": 0.00085464,
        "meta_inclination": 64.7387,
        "meta_ra_of_asc_node": 198.627,
        "meta_arg_of_pericenter": 203.7858,
        "meta_mean_anomaly": 156.2488,
        "meta_ephemeris_type": 0,
        "meta_classification_type": "U",
        "meta_norad_cat_id": 54377,
        "meta_element_set_no": 999,
        "meta_rev_at_epoch": 2383,
        "meta_bstar": 0,
        "meta_mean_motion_dot": 9.9e-07,
        "meta_mean_motion_ddot": 0,
        "tle_line1": "1 54377U 22161A   25354.92245604  .00000099  00000+0  00000+0 0  9995",
        "tle_line2": "2 54377  64.7387 198.6270 0008546 203.7858 156.2488  2.13102061 23838"
      },
      "geometry": {
        "type": "Point",
        "coordinates": [
          166.47782109315654,
          -48.380763264290664
        ]
      }
    },
    {
      "type": "Feature",
      "properties": {
        "norad_id": 57517,
        "name": "COSMOS 2569 (703K)",
        "group": "glo-ops",
        "lat": -56.150547273571455,
        "lon": 35.13187673628633,
        "alt_km": 19108.595274424362,
        "timestamp": "2025-12-21T18:54:58.757874+00:00",
        "meta_object_name": "COSMOS 2569 (703K)",
        "meta_object_id": "2023-114A",
        "meta_epoch": "2025-12-20T11:11:48.591168",
        "meta_mean_motion": 2.13103983,
        "meta_eccentricity": 0.00107986,
        "meta_inclination": 65.1981,
        "meta_ra_of_asc_node": 78.6524,
        "meta_arg_of_pericenter": 287.0398,
        "meta_mean_anomaly": 72.8764,
        "meta_ephemeris_type": 0,
        "meta_classification_type": "U",
        "meta_norad_cat_id": 57517,
        "meta_element_set_no": 999,
        "meta_rev_at_epoch": 1845,
        "meta_bstar": 0,
        "meta_mean_motion_dot": -1.8e-07,
        "meta_mean_motion_ddot": 0,
        "tle_line1": "1 57517U 23114A   25354.46653462 -.00000018  00000+0  00000+0 0  9999",
        "tle_line2": "2 57517  65.1981  78.6524 0010798 287.0398  72.8764  2.13103983 18453"
      },
      "geometry": {
        "type": "Point",
        "coordinates": [
          35.13187673628633,
          -56.150547273571455
        ]
      }
    },
    {
      "type": "Feature",
      "properties": {
        "norad_id": 63130,
        "name": "COSMOS 2584 (704K)",
        "group": "glo-ops",
        "lat": 18.839424326141472,
        "lon": 88.00441080807796,
        "alt_km": 19146.612231975207,
        "timestamp": "2025-12-21T18:54:58.757884+00:00",
        "meta_object_name": "COSMOS 2584 (704K)",
        "meta_object_id": "2025-042A",
        "meta_epoch": "2025-12-21T07:00:00.966240",
        "meta_mean_motion": 2.13103074,
        "meta_eccentricity": 0.00077364,
        "meta_inclination": 64.9804,
        "meta_ra_of_asc_node": 78.8547,
        "meta_arg_of_pericenter": 219.241,
        "meta_mean_anomaly": 140.7412,
        "meta_ephemeris_type": 0,
        "meta_classification_type": "U",
        "meta_norad_cat_id": 63130,
        "meta_element_set_no": 999,
        "meta_rev_at_epoch": 625,
        "meta_bstar": 0,
        "meta_mean_motion_dot": -1.1e-07,
        "meta_mean_motion_ddot": 0,
        "tle_line1": "1 63130U 25042A   25355.29167785 -.00000011  00000+0  00000+0 0  9992",
        "tle_line2": "2 63130  64.9804  78.8547 0007736 219.2410 140.7412  2.13103074  6250"
      },
      "geometry": {
        "type": "Point",
        "coordinates": [
          88.00441080807796,
          18.839424326141472
        ]
      }
    },
    {
      "type": "Feature",
      "properties": {
        "norad_id": 65590,
        "name": "COSMOS 2596 (708K)",
        "group": "glo-ops",
        "lat": 36.13807913465344,
        "lon": 120.98608783821,
        "alt_km": 19161.030119339262,
        "timestamp": "2025-12-21T18:54:58.757895+00:00",
        "meta_object_name": "COSMOS 2596 (708K)",
        "meta_object_id": "2025-206B",
        "meta_epoch": "2025-12-21T08:11:49.978752",
        "meta_mean_motion": 2.13100442,
        "meta_eccentricity": 0.00140796,
        "meta_inclination": 64.7397,
        "meta_ra_of_asc_node": 321.1762,
        "meta_arg_of_pericenter": 307.1691,
        "meta_mean_anomaly": 209.4715,
        "meta_ephemeris_type": 0,
        "meta_classification_type": "U",
        "meta_norad_cat_id": 65590,
        "meta_element_set_no": 999,
        "meta_rev_at_epoch": 212,
        "meta_bstar": 0,
        "meta_mean_motion_dot": -4.8e-07,
        "meta_mean_motion_ddot": 0,
        "tle_line1": "1 65590U 25206B   25355.34155068 -.00000048  00000+0  00000+0 0  9993",
        "tle_line2": "2 65590  64.7397 321.1762 0014079 307.1691 209.4715  2.13100442  2123"
      },
      "geometry": {
        "type": "Point",
        "coordinates": [
          120.98608783821,
          36.13807913465344
        ]
      }
    }
  ]
}